[{"OBJECT_NAME":"STARLINK-30214","OBJECT_ID":"2023-102H","EPOCH":"2026-03-09T22:00:01.999584","MEAN_MOTION":15.16864915,"ECCENTRICITY":0.00019718,"INCLINATION":42.9997,"RA_OF_ASC_NODE":246.4866,"ARG_OF_PERICENTER":280.5737,"MEAN_ANOMALY":98.4796,"EPHEMERIS_TYPE":0,"CLASSIFICATION_TYPE":"U","NORAD_CAT_ID":57411,"ELEMENT_SET_NO":999,"REV_AT_EPOCH":578,"BSTAR":0.0062663792,"MEAN_MOTION_DOT":0.00127643,"MEAN_MOTION_DDOT":0},{"OBJECT_NAME":"FLOCK 4H-34","OBJECT_ID":"2025-276BZ","EPOCH":"2026-03-09T04:19:28.608672","MEAN_MOTION":15.1928367,"ECCENTRICITY":0.00010193,"INCLINATION":97.4305,"RA_OF_ASC_NODE":143.5834,"ARG_OF_PERICENTER":313.8618,"MEAN_ANOMALY":46.2533,"EPHEMERIS_TYPE":0,"CLASSIFICATION_TYPE":"U","NORAD_CAT_ID":66737,"ELEMENT_SET_NO":999,"REV_AT_EPOCH":1449,"BSTAR":0.00036111821,"MEAN_MOTION_DOT":7.553e-5,"MEAN_MOTION_DDOT":0}]
